{
  "type": "FeatureCollection",
  "features": [
    {
      "type": "Feature",
      "properties": {
        "norad_id": 33886,
        "name": "IRIDIUM 33 DEB",
        "group": "iridium-33-debris",
        "lat": 33.585575367445635,
        "lon": 67.84996400106051,
        "alt_km": 778.2954307098216,
        "timestamp": "2025-12-16T23:36:36.583057+00:00",
        "meta_object_name": "IRIDIUM 33 DEB",
        "meta_object_id": "1997-051BF",
        "meta_epoch": "2025-12-16T07:03:18.684864",
        "meta_mean_motion": 14.36056304,
        "meta_eccentricity": 0.00125718,
        "meta_inclination": 86.3829,
        "meta_ra_of_asc_node": 65.7329,
        "meta_arg_of_pericenter": 228.8183,
        "meta_mean_anomaly": 201.0809,
        "meta_ephemeris_type": 0,
        "meta_classification_type": "U",
        "meta_norad_cat_id": 33886,
        "meta_element_set_no": 999,
        "meta_rev_at_epoch": 88103,
        "meta_bstar": 0.00018278351,
        "meta_mean_motion_dot": 5.51e-06,
        "meta_mean_motion_ddot": 0,
        "tle_line1": "1 33886U 97051BF  25350.29396626  .00000551  00000+0  18278-3 0  9997",
        "tle_line2": "2 33886  86.3829  65.7329 0012571 228.8183 201.0809 14.36056304881038"
      },
      "geometry": {
        "type": "Point",
        "coordinates": [
          67.84996400106051,
          33.585575367445635
        ]
      }
    },
    {
      "type": "Feature",
      "properties": {
        "norad_id": 33887,
        "name": "IRIDIUM 33 DEB",
        "group": "iridium-33-debris",
        "lat": -12.24506648725897,
        "lon": 0.7596153898953846,
        "alt_km": 774.7437322230835,
        "timestamp": "2025-12-16T23:36:36.583067+00:00",
        "meta_object_name": "IRIDIUM 33 DEB",
        "meta_object_id": "1997-051BG",
        "meta_epoch": "2025-12-16T07:01:37.806816",
        "meta_mean_motion": 14.37224219,
        "meta_eccentricity": 0.0004778,
        "meta_inclination": 86.3043,
        "meta_ra_of_asc_node": 1.861,
        "meta_arg_of_pericenter": 211.565,
        "meta_mean_anomaly": 163.488,
        "meta_ephemeris_type": 0,
        "meta_classification_type": "U",
        "meta_norad_cat_id": 33887,
        "meta_element_set_no": 999,
        "meta_rev_at_epoch": 88216,
        "meta_bstar": 0.00014137146,
        "meta_mean_motion_dot": 4.4e-06,
        "meta_mean_motion_ddot": 0,
        "tle_line1": "1 33887U 97051BG  25350.29279869  .00000440  00000+0  14137-3 0  9994",
        "tle_line2": "2 33887  86.3043   1.8610 0004778 211.5650 163.4880 14.37224219882167"
      },
      "geometry": {
        "type": "Point",
        "coordinates": [
          0.7596153898953846,
          -12.24506648725897
        ]
      }
    },
    {
      "type": "Feature",
      "properties": {
        "norad_id": 33953,
        "name": "IRIDIUM 33 DEB",
        "group": "iridium-33-debris",
        "lat": 59.79240326550059,
        "lon": -134.29658608135233,
        "alt_km": 691.2974868534311,
        "timestamp": "2025-12-16T23:36:36.583078+00:00",
        "meta_object_name": "IRIDIUM 33 DEB",
        "meta_object_id": "1997-051BN",
        "meta_epoch": "2025-12-16T05:10:47.996256",
        "meta_mean_motion": 14.55360619,
        "meta_eccentricity": 0.00182387,
        "meta_inclination": 86.3848,
        "meta_ra_of_asc_node": 52.2709,
        "meta_arg_of_pericenter": 92.3445,
        "meta_mean_anomaly": 326.7114,
        "meta_ephemeris_type": 0,
        "meta_classification_type": "U",
        "meta_norad_cat_id": 33953,
        "meta_element_set_no": 999,
        "meta_rev_at_epoch": 88354,
        "meta_bstar": 0.00077913405,
        "meta_mean_motion_dot": 3.408e-05,
        "meta_mean_motion_ddot": 0,
        "tle_line1": "1 33953U 97051BN  25350.21583329  .00003408  00000+0  77913-3 0  9997",
        "tle_line2": "2 33953  86.3848  52.2709 0018238  92.3445 326.7114 14.55360619883548"
      },
      "geometry": {
        "type": "Point",
        "coordinates": [
          -134.29658608135233,
          59.79240326550059
        ]
      }
    },
    {
      "type": "Feature",
      "properties": {
        "norad_id": 33960,
        "name": "IRIDIUM 33 DEB",
        "group": "iridium-33-debris",
        "lat": 21.05139076115333,
        "lon": -71.04202952226748,
        "alt_km": 607.9348669717228,
        "timestamp": "2025-12-16T23:36:36.583089+00:00",
        "meta_object_name": "IRIDIUM 33 DEB",
        "meta_object_id": "1997-051BV",
        "meta_epoch": "2025-12-16T07:53:48.198912",
        "meta_mean_motion": 14.8537935,
        "meta_eccentricity": 0.00074933,
        "meta_inclination": 86.2531,
        "meta_ra_of_asc_node": 287.8214,
        "meta_arg_of_pericenter": 56.3279,
        "meta_mean_anomaly": 66.1486,
        "meta_ephemeris_type": 0,
        "meta_classification_type": "U",
        "meta_norad_cat_id": 33960,
        "meta_element_set_no": 999,
        "meta_rev_at_epoch": 88920,
        "meta_bstar": 0.0022914267,
        "meta_mean_motion_dot": 0.00019787,
        "meta_mean_motion_ddot": 0,
        "tle_line1": "1 33960U 97051BV  25350.32903008  .00019787  00000+0  22914-2 0  9994",
        "tle_line2": "2 33960  86.2531 287.8214 0007493  56.3279  66.1486 14.85379350889208"
      },
      "geometry": {
        "type": "Point",
        "coordinates": [
          -71.04202952226748,
          21.05139076115333
        ]
      }
    },
    {
      "type": "Feature",
      "properties": {
        "norad_id": 33966,
        "name": "IRIDIUM 33 DEB",
        "group": "iridium-33-debris",
        "lat": 21.64374380741494,
        "lon": -137.22803054457097,
        "alt_km": 721.4585235553941,
        "timestamp": "2025-12-16T23:36:36.583099+00:00",
        "meta_object_name": "IRIDIUM 33 DEB",
        "meta_object_id": "1997-051CB",
        "meta_epoch": "2025-12-16T04:55:59.392992",
        "meta_mean_motion": 14.49608767,
        "meta_eccentricity": 0.00078351,
        "meta_inclination": 86.3927,
        "meta_ra_of_asc_node": 44.5402,
        "meta_arg_of_pericenter": 176.7989,
        "meta_mean_anomaly": 242.8784,
        "meta_ephemeris_type": 0,
        "meta_classification_type": "U",
        "meta_norad_cat_id": 33966,
        "meta_element_set_no": 999,
        "meta_rev_at_epoch": 88492,
        "meta_bstar": 0.00040050958,
        "meta_mean_motion_dot": 1.558e-05,
        "meta_mean_motion_ddot": 0,
        "tle_line1": "1 33966U 97051CB  25350.20554853  .00001558  00000+0  40051-3 0  9997",
        "tle_line2": "2 33966  86.3927  44.5402 0007835 176.7989 242.8784 14.49608767884921"
      },
      "geometry": {
        "type": "Point",
        "coordinates": [
          -137.22803054457097,
          21.64374380741494
        ]
      }
    },
    {
      "type": "Feature",
      "properties": {
        "norad_id": 34071,
        "name": "IRIDIUM 33 DEB",
        "group": "iridium-33-debris",
        "lat": -42.735263893727186,
        "lon": -160.6307399357505,
        "alt_km": 738.3285186736139,
        "timestamp": "2025-12-16T23:36:36.583109+00:00",
        "meta_object_name": "IRIDIUM 33 DEB",
        "meta_object_id": "1997-051CE",
        "meta_epoch": "2025-12-16T02:42:16.557696",
        "meta_mean_motion": 14.49480462,
        "meta_eccentricity": 0.00099956,
        "meta_inclination": 86.3456,
        "meta_ra_of_asc_node": 16.3626,
        "meta_arg_of_pericenter": 98.6958,
        "meta_mean_anomaly": 261.5379,
        "meta_ephemeris_type": 0,
        "meta_classification_type": "U",
        "meta_norad_cat_id": 34071,
        "meta_element_set_no": 999,
        "meta_rev_at_epoch": 88383,
        "meta_bstar": 0.00045241306,
        "meta_mean_motion_dot": 1.753e-05,
        "meta_mean_motion_ddot": 0,
        "tle_line1": "1 34071U 97051CE  25350.11269164  .00001753  00000+0  45241-3 0  9996",
        "tle_line2": "2 34071  86.3456  16.3626 0009995  98.6958 261.5379 14.49480462883835"
      },
      "geometry": {
        "type": "Point",
        "coordinates": [
          -160.6307399357505,
          -42.735263893727186
        ]
      }
    },
    {
      "type": "Feature",
      "properties": {
        "norad_id": 34077,
        "name": "IRIDIUM 33 DEB",
        "group": "iridium-33-debris",
        "lat": -60.16740361197876,
        "lon": 43.31052542874033,
        "alt_km": 684.2470938174183,
        "timestamp": "2025-12-16T23:36:36.583120+00:00",
        "meta_object_name": "IRIDIUM 33 DEB",
        "meta_object_id": "1997-051CL",
        "meta_epoch": "2025-12-16T04:27:24.340896",
        "meta_mean_motion": 14.64876846,
        "meta_eccentricity": 0.00098188,
        "meta_inclination": 86.3861,
        "meta_ra_of_asc_node": 49.9893,
        "meta_arg_of_pericenter": 28.7956,
        "meta_mean_anomaly": 25.1359,
        "meta_ephemeris_type": 0,
        "meta_classification_type": "U",
        "meta_norad_cat_id": 34077,
        "meta_element_set_no": 999,
        "meta_rev_at_epoch": 88383,
        "meta_bstar": 0.00069534006,
        "meta_mean_motion_dot": 3.738e-05,
        "meta_mean_motion_ddot": 0,
        "tle_line1": "1 34077U 97051CL  25350.18569839  .00003738  00000+0  69534-3 0  9997",
        "tle_line2": "2 34077  86.3861  49.9893 0009818  28.7956  25.1359 14.64876846883839"
      },
      "geometry": {
        "type": "Point",
        "coordinates": [
          43.31052542874033,
          -60.16740361197876
        ]
      }
    }
  ]
}